satname,norad_id,inclination_deg,eccentricity,mean_motion_rev_per_day,perigee_km,apogee_km,l1,l2
STARLINK-1329,45531,53.053,0.0001696,15.06390431,546.0663416109219,548.4154297897512,1 45531U 20025A   25273.72782016 -.00000500  00000+0 -14688-4 0  9996,2 45531  53.0530 104.7149 0001696  85.2167 274.9016 15.06390431300984
STARLINK-1338,45532,53.0534,0.0001618,15.06391528,546.1169979218721,548.3580491176845,1 45532U 20025B   25273.80522203 -.00001673  00000+0 -93466-4 0  9999,2 45532  53.0534 104.3639 0001618  99.9212 260.1960 15.06391528300990
STARLINK-1350,45535,53.0751,0.0001941,15.31376116,470.3760922793772,473.03520119484074,1 45535U 20025E   25273.68868958  .00025836  00000+0  84987-3 0  9990,2 45535  53.0751  61.8973 0001941 134.0000 226.1160 15.31376116301604
STARLINK-1362,45538,53.0538,0.0001448,15.06394625,546.2252387315457,548.2308244446922,1 45538U 20025H   25273.77105970 -.00004355  00000+0 -27370-3 0  9999,2 45538  53.0538 104.2396 0001448  88.6246 271.4908 15.06394625300990
STARLINK-1368,45540,53.0554,0.0001653,15.06389993,546.0974629353805,548.3869933081978,1 45540U 20025K   25273.84208764 -.00001056  00000+0 -51984-4 0  9999,2 45540  53.0554 104.2026 0001653  97.6512 262.4665 15.06389993300997
STARLINK-1371,45542,53.0519,0.0001543,15.06392902,546.1647277321999,548.3018970105977,1 45542U 20025M   25273.74624659 -.00000001  00000+0  18834-4 0  9990,2 45542  53.0519 104.6321 0001543  93.7870 266.3295 15.06392902300989
STARLINK-1372,45543,53.0546,0.0001448,15.06399094,546.2115438259179,548.2171255724452,1 45543U 20025N   25273.84944729 -.00005331  00000+0 -33924-3 0  9993,2 45543  53.0546 104.1702 0001448  96.4540 263.6614 15.06399094300092
STARLINK-1373,45544,53.0529,0.0001519,15.06388657,546.1943570909962,548.298288544469,1 45544U 20025P   25273.80153310 -.00002044  00000+0 -11836-3 0  9994,2 45544  53.0529 104.3848 0001519  91.7496 268.3667 15.06388657300996
STARLINK-1294,45551,53.0506,0.0005598,15.54678778,399.29041391055307,406.882671789127,1 45551U 20025W   25273.91668980  .00137775  00000+0  20133-2 0  9995,2 45551  53.0506  48.0345 0005598 292.3135 278.0992 15.54678778  5962
STARLINK-1323,45553,53.0347,0.0003721,15.96095318,282.7846900464656,287.74359317605376,1 45553U 20025Y   25273.91668980  .00673312  20410-3  16030-2 0  9991,2 45553  53.0347  28.0856 0003721  45.9841 113.3161 15.96095318  5917
STARLINK-1325,45554,53.06,0.0005639,15.481702,418.24432406192864,425.9136076282084,1 45554U 20025Z   25273.91668980  .00138014  00000+0  25441-2 0  9992,2 45554  53.0600  40.2300 0005639   1.8041  23.3743 15.48170200  5954
STARLINK-1327,45555,53.0565,0.0001641,15.06392755,546.0973095666077,548.3702162509935,1 45555U 20025AA  25273.77388397 -.00000130  00000+0  10144-4 0  9992,2 45555  53.0565  84.5099 0001641 111.7324 248.3839 15.06392755301268
STARLINK-1336,45557,53.0386,0.0001027,15.91387296,297.7141662636077,299.08552693189813,1 45557U 20025AC  25273.91668980  .00514501  11353-3  15739-2 0  9990,2 45557  53.0386  33.9539 0001027  94.7563  25.8047 15.91387296  6057
STARLINK-1342,45558,53.0435,0.0002749,16.04130845,261.16735150514614,264.8186447781245,1 45558U 20025AD  25273.31998186  .00807108  33511-3  12133-2 0  9992,2 45558  53.0435  32.8228 0002749   2.3718 357.7326 16.04130845301949
STARLINK-1356,45564,53.0544,0.0001556,15.06392641,546.1565245601296,548.3117000502798,1 45564U 20025AK  25273.77756898  .00000587  00000+0  58343-4 0  9995,2 45564  53.0544  84.4908 0001556 102.0977 258.0186 15.06392641301262
STARLINK-1357,45565,53.0619,0.0006978,15.26987225,480.03567717909027,489.61362646037014,1 45565U 20025AL  25273.91668980  .00174850  00000+0  63712-2 0  9995,2 45565  53.0619  73.8791 0006978 162.6585  43.2835 15.26987225  5792
STARLINK-1361,45567,53.0537,0.000145,15.0638856,546.2424394875925,548.2508007374245,1 45567U 20025AN  25273.72966174  .00000363  00000+0  43298-4 0  9998,2 45567  53.0537  84.7047 0001450  92.6530 267.4625 15.06388560301263
STARLINK-1363,45568,53.0534,0.0001411,15.06394227,546.2520822302458,548.2064205863926,1 45568U 20025AP  25273.74442844 -.00000938  00000+0 -44091-4 0  9996,2 45568  53.0534  84.8803 0001411  93.2732 266.8418 15.06394227301259
STARLINK-1366,45569,53.0534,0.0001415,15.06385816,546.2750872242405,548.2349731687855,1 45569U 20025AQ  25273.73334789 -.00001211  00000+0 -62427-4 0  9992,2 45569  53.0534  84.6889 0001415  89.0367 271.0784 15.06385816301251
STARLINK-1376,45570,53.0533,0.0001275,15.06391399,546.3549335877751,548.120904192092,1 45570U 20025AR  25273.72596718 -.00001515  00000+0 -82826-4 0  9997,2 45570  53.0533  84.7236 0001275  90.8197 269.2938 15.06391399301257
STARLINK-1320,45572,53.0592,0.0007774,15.37879681,447.0703565536487,457.690445008383,1 45572U 20025AT  25273.91668980  .00110861  00000+0  28990-2 0  9994,2 45572  53.0592  34.4574 0007774 239.5154 244.9531 15.37879681  5761
STARLINK-1321,45573,53.055,0.0001497,15.0639666,546.1850683645953,548.2585207876909,1 45573U 20025AU  25273.64580578  .00000410  00000+0  46411-4 0  9999,2 45573  53.0550  75.0834 0001497  79.7426 280.3732 15.06396660301086
STARLINK-1328,45576,53.0542,0.000477,15.58062143,390.0359800290544,396.4958984330806,1 45576U 20025AX  25273.91668980  .00216676  00000+0  27627-2 0  9995,2 45576  53.0542  62.4772 0004770 274.1520 239.7566 15.58062143  5935
STARLINK-1331,45578,53.055,0.0001231,15.06394955,546.3745078689326,548.0795324907012,1 45578U 20025AZ  25273.75637957 -.00000397  00000+0 -77386-5 0  9992,2 45578  53.0550  74.5872 0001231  91.1148 268.9982 15.06394955301413
STARLINK-1333,45580,53.0538,0.0001462,15.06391406,546.2254076257323,548.2503872457428,1 45580U 20025BB  25273.76284307  .00007877  00000+0  54724-3 0  9990,2 45580  53.0538  84.5547 0001462  87.4073 272.7084 15.06391406301260
STARLINK-1335,45581,53.056,0.0001561,15.0639212,546.1546584287371,548.3167597885213,1 45581U 20025BC  25273.70109289  .00000145  00000+0  28649-4 0  9999,2 45581  53.0560  74.8352 0001561  82.6045 277.5122 15.06392120301392
STARLINK-1337,45582,53.0537,0.000132,15.06397547,546.304929038145,548.1332230422204,1 45582U 20025BD  25273.72319786 -.00001692  00000+0 -94735-4 0  9996,2 45582  53.0537  74.7364 0001320  98.9267 261.1872 15.06397547301397
STARLINK-1347,45586,53.0565,0.0005925,15.26356573,482.6474985581299,490.78234808726666,1 45586U 20025BH  25273.73081073  .00118068  00000+0  44236-2 0  9999,2 45586  53.0565  65.0792 0005925 171.2716 188.8386 15.26356573301525
STARLINK-1360,45588,53.0482,0.0004886,15.68719187,359.27006390181396,365.8570764990136,1 45588U 20025BK  25273.91668980  .00005775  00000+0  54627-4 0  9996,2 45588  53.0482 352.3553 0004886  12.4980 248.9091 15.68719187  6013
STARLINK-1364,45589,53.0545,0.0001161,15.06397838,546.4141504279369,548.0222179017001,1 45589U 20025BL  25273.72689789  .00004277  00000+0  30584-3 0  9997,2 45589  53.0545  74.7221 0001161  84.2308 275.8814 15.06397838301393
STARLINK-1365,45590,53.0528,0.000143,15.06401028,546.2180828748897,548.1987316613686,1 45590U 20025BM  25273.80889716  .00002518  00000+0  18788-3 0  9998,2 45590  53.0528 104.3501 0001430  97.6789 262.4362 15.06401028301002
STARLINK-1443,45660,53.054,0.0001112,15.06401987,546.4353699937019,547.9755661586032,1 45660U 20035D   25273.72782370  .00005599  00000+0  39443-3 0  9999,2 45660  53.0540  64.7167 0001112  86.0473 274.0643 15.06401987294624
STARLINK-1446,45663,53.0292,0.0004186,15.30383342,471.79911386112053,477.5362819542088,1 45663U 20035G   25273.65933426  .00048494  00000+0  16291-2 0  9990,2 45663  53.0292  33.5301 0004186 163.6941 196.4193 15.30383342295057
STARLINK-1448,45665,53.0542,0.0001452,15.06378119,546.2730505154477,548.2841912117465,1 45665U 20035J   25273.79784199 -.00008128  00000+0 -52769-3 0  9991,2 45665  53.0542  64.3978 0001452  97.2943 262.8211 15.06378119294626
STARLINK-1451,45668,53.054,0.0001333,15.06396869,546.2980037770212,548.1443042608817,1 45668U 20035M   25273.80157000  .00001519  00000+0  12085-3 0  9993,2 45668  53.0540  64.7008 0001333  85.6679 274.4462 15.06396869294630
STARLINK-1452,45669,53.042,0.0006073,15.23179977,492.08123494845586,500.4308727516627,1 45669U 20035N   25273.91668980  .00116036  00000+0  47817-2 0  9991,2 45669  53.0420  49.1524 0006073 258.4556 270.0225 15.23179977  5882
STARLINK-1453,45670,53.0546,0.0001675,15.06426025,545.9718136865204,548.2917787332517,1 45670U 20035P   25273.61259998  .00015021  00000+0  10244-2 0  9991,2 45670  53.0546  35.2346 0001675  97.1708 262.9472 15.06426025294919
STARLINK-1454,45671,53.0549,0.0001492,15.06399054,546.181194856118,548.2477197309745,1 45671U 20035Q   25273.69095294  .00000465  00000+0  50131-4 0  9994,2 45671  53.0549  64.8811 0001492  82.7168 277.3990 15.06399054294607
STARLINK-1456,45673,53.0528,0.0002338,15.06402327,545.5852812022031,548.8235708530128,1 45673U 20035S   25273.63933529 -.00000765  00000+0 -32440-4 0  9990,2 45673  53.0528  65.1036 0002338 141.4258 218.6898 15.06402327294616
STARLINK-1457,45674,53.055,0.0001335,15.0639769,546.2941027869811,548.143172742265,1 45674U 20035T   25273.64671465 -.00000881  00000+0 -40293-4 0  9994,2 45674  53.0550  65.0784 0001335 112.0390 248.0741 15.06397690294584
STARLINK-1458,45675,53.0556,0.0001489,15.06398352,546.1854236731724,548.2477939778801,1 45675U 20035U   25273.83469545 -.00000815  00000+0 -35799-4 0  9992,2 45675  53.0556  64.2347 0001489  98.6858 261.4299 15.06398352294601
STARLINK-1460,45676,53.0543,0.000124,15.06398875,546.3562622546615,548.0737495521262,1 45676U 20035V   25273.73886851  .00001505  00000+0  11989-3 0  9994,2 45676  53.0543  64.6641 0001240  92.4073 267.7058 15.06398875294584
STARLINK-1392,45677,53.0542,0.0001393,15.06396807,546.2566416233622,548.1860464580122,1 45677U 20035W   25273.68358345  .00002828  00000+0  20868-3 0  9996,2 45677  53.0542  64.9132 0001393  86.0621 274.0527 15.06396807294618
